NORAD_CAT_ID,OBJECT_NAME,OBJECT_TYPE,EPOCH,MEAN_MOTION,ECCENTRICITY,INCLINATION,RA_OF_ASC_NODE,ARG_OF_PERICENTER,MEAN_ANOMALY,BSTAR,MEAN_MOTION_DOT,MEAN_MOTION_DDOT,TLE_LINE0,TLE_LINE1,TLE_LINE2,SEMIMAJOR_AXIS,PERIOD,APOGEE,PERIGEE,DECAYED
54794.0,STARLINK-5392,PAYLOAD,2023-10-26 11:06:05,15.12098371,0.0001469,53.2192,319.6275,94.3942,265.722,-0.00013111,-2.58e-05,0.0,0 STARLINK-5392,1 54794U 22175AN  23299.46256330 -.00002580  00000-0 -13111-3 0  9997,2 54794  53.2192 319.6275 0001469  94.3942 265.7220 15.12098371 47267,6907.939,95.232,530.819,528.789,0.0
54794.0,STARLINK-5392,PAYLOAD,2023-10-26 19:01:57,15.12121573,0.0001604,53.2192,318.1356,92.9611,267.1566,1.8131e-05,1.8e-07,0.0,0 STARLINK-5392,1 54794U 22175AN  23299.79302548  .00000018  00000-0  18131-4 0  9996,2 54794  53.2192 318.1356 0001604  92.9611 267.1566 15.12121573 49474,6907.868,95.23,530.841,528.625,0.0
54794.0,STARLINK-5392,PAYLOAD,2023-10-27 04:33:01,15.12118255,0.0001371,53.2191,316.3461,93.8768,266.2382,4.1705e-05,4.29e-06,0.0,0 STARLINK-5392,1 54794U 22175AN  23300.18960298  .00000429  00000-0  41705-4 0  9993,2 54794  53.2191 316.3461 0001371  93.8768 266.2382 15.12118255 47370,6907.878,95.231,530.69,528.796,0.0
54794.0,STARLINK-5392,PAYLOAD,2023-10-27 10:53:45,15.12110863,0.0001642,53.219,315.1527,98.4758,261.6422,-3.8903e-05,-9.75e-06,0.0,0 STARLINK-5392,1 54794U 22175AN  23300.45399658 -.00000975  00000-0 -38903-4 0  9993,2 54794  53.2190 315.1527 0001642  98.4758 261.6422 15.12110863 47416,6907.901,95.231,530.9,528.631,0.0
54794.0,STARLINK-5392,PAYLOAD,2023-10-28 10:41:26,15.12114365,0.0001476,53.2178,310.6815,86.571,273.5452,-2.9289e-05,-8.08e-06,0.0,0 STARLINK-5392,1 54794U 22175AN  23301.44544064 -.00000808  00000-0 -29289-4 0  9998,2 54794  53.2178 310.6815 0001476  86.5710 273.5452 15.12114365 49725,6907.89,95.231,530.775,528.735,0.0
54794.0,STARLINK-5392,PAYLOAD,2023-10-29 04:08:22,15.12129707,0.0001457,53.2182,307.4007,89.1747,270.9414,-2.494e-05,-7.32e-06,0.0,0 STARLINK-5392,1 54794U 22175AN  23302.17248789 -.00000732  00000-0 -24940-4 0  9999,2 54794  53.2182 307.4007 0001457  89.1747 270.9414 15.12129707 47672,6907.843,95.23,530.715,528.702,0.0
54794.0,STARLINK-5392,PAYLOAD,2023-10-29 10:29:06,15.12113504,0.0001532,53.2185,306.2097,92.3677,267.7492,5.6928e-05,6.94e-06,0.0,0 STARLINK-5392,1 54794U 22175AN  23302.43688003  .00000694  00000-0  56928-4 0  9991,2 54794  53.2185 306.2097 0001532  92.3677 267.7492 15.12113504 47716,6907.893,95.231,530.816,528.699,0.0
54794.0,STARLINK-5392,PAYLOAD,2023-10-30 03:56:05,15.12102939,0.0001569,53.218,302.9243,100.5042,259.6128,1.9674e-06,-2.63e-06,0.0,0 STARLINK-5392,1 54794U 22175AN  23303.16395195 -.00000263  00000-0  19674-5 0  9990,2 54794  53.2180 302.9243 0001569 100.5042 259.6128 15.12102939 47823,6907.925,95.232,530.874,528.706,0.0
54794.0,STARLINK-5392,PAYLOAD,2023-10-30 07:06:26,15.12110484,0.0001547,53.2173,302.3298,116.979,243.1361,-3.5048e-06,-3.59e-06,0.0,0 STARLINK-5392,1 54794U 22175AN  23303.29613956 -.00000359  00000-0 -35048-5 0  9992,2 54794  53.2173 302.3298 0001547 116.9790 243.1361 15.12110484 47849,6907.902,95.231,530.836,528.698,0.0
54794.0,STARLINK-5392,PAYLOAD,2023-10-30 16:37:30,15.121169,0.0001467,53.2176,300.5426,96.4498,263.6663,1.1292e-05,-1.01e-06,0.0,0 STARLINK-5392,1 54794U 22175AN  23303.69271428 -.00000101  00000-0  11292-4 0  9998,2 54794  53.2176 300.5426 0001467  96.4498 263.6663 15.12116900 50062,6907.882,95.231,530.761,528.734,0.0
54794.0,STARLINK-5392,PAYLOAD,2023-10-31 06:54:07,15.12110117,0.0001658,53.2182,297.8603,104.6739,255.4438,7.7775e-05,1.057e-05,0.0,0 STARLINK-5392,1 54794U 22175AN  23304.28758256  .00001057  00000-0  77775-4 0  9991,2 54794  53.2182 297.8603 0001658 104.6739 255.4438 15.12110117 50159,6907.903,95.231,530.913,528.623,0.0
54794.0,STARLINK-5392,PAYLOAD,2023-10-31 16:25:11,15.12112676,0.0001513,53.2179,296.0705,99.5339,260.5825,-2.4075e-05,-7.17e-06,0.0,0 STARLINK-5392,1 54794U 22175AN  23304.68416340 -.00000717  00000-0 -24075-4 0  9999,2 54794  53.2179 296.0705 0001513  99.5339 260.5825 15.12112676 48052,6907.895,95.231,530.805,528.715,0.0
54794.0,STARLINK-5392,PAYLOAD,2023-11-01 06:41:48,15.12112036,0.0001455,53.2182,293.3839,93.9878,266.1281,6.2482e-05,7.91e-06,0.0,0 STARLINK-5392,1 54794U 22175AN  23305.27903030  .00000791  00000-0  62482-4 0  9996,2 54794  53.2182 293.3839 0001455  93.9878 266.1281 15.12112036 50304,6907.897,95.231,530.767,528.757,0.0
54794.0,STARLINK-5392,PAYLOAD,2023-11-01 16:12:53,15.12111832,0.0001458,53.2181,291.5942,89.5335,270.5826,-5.3221e-05,-1.224e-05,0.0,0 STARLINK-5392,1 54794U 22175AN  23305.67561351 -.00001224  00000-0 -53221-4 0  9991,2 54794  53.2181 291.5942 0001458  89.5335 270.5826 15.12111832 50363,6907.898,95.231,530.77,528.756,0.0
54794.0,STARLINK-5392,PAYLOAD,2023-11-02 04:54:18,15.12116998,0.0001281,53.217,289.2074,91.8467,268.2673,6.1796e-05,7.79e-06,0.0,0 STARLINK-5392,1 54794U 22175AN  23306.20437650  .00000779  00000-0  61796-4 0  9993,2 54794  53.2170 289.2074 0001281  91.8467 268.2673 15.12116998 48287,6907.882,95.231,530.632,528.862,0.0
54794.0,STARLINK-5392,PAYLOAD,2023-11-02 08:04:39,15.12116256,0.0001404,53.2181,288.6091,80.0536,280.0616,1.9352e-06,-2.64e-06,0.0,0 STARLINK-5392,1 54794U 22175AN  23306.33657229 -.00000264  00000-0  19352-5 0  9995,2 54794  53.2181 288.6091 0001404  80.0536 280.0616 15.12116256 50464,6907.884,95.231,530.719,528.779,0.0
54794.0,STARLINK-5392,PAYLOAD,2023-11-02 16:00:34,15.12108117,0.0001424,53.2186,287.1211,96.4487,263.6668,-5.1175e-05,-1.189e-05,0.0,0 STARLINK-5392,1 54794U 22175AN  23306.66706199 -.00001189  00000-0 -51175-4 0  9998,2 54794  53.2186 287.1211 0001424  96.4487 263.6668 15.12108117 48351,6907.909,95.231,530.758,528.79,0.0
54794.0,STARLINK-5392,PAYLOAD,2023-11-03 04:41:58,15.12120252,0.0001448,53.2178,284.7332,93.2113,266.9047,6.6169e-05,8.56e-06,0.0,0 STARLINK-5392,1 54794U 22175AN  23307.19582143  .00000856  00000-0  66169-4 0  9995,2 54794  53.2178 284.7332 0001448  93.2113 266.9047 15.12120252 48436,6907.872,95.231,530.737,528.737,0.0
54794.0,STARLINK-5392,PAYLOAD,2023-11-03 07:52:20,15.12126885,0.0001459,53.218,284.1374,93.4318,266.6842,5.2027e-05,6.09e-06,0.0,0 STARLINK-5392,1 54794U 22175AN  23307.32801006  .00000609  00000-0  52027-4 0  9996,2 54794  53.2180 284.1374 0001459  93.4318 266.6842 15.12126885 50611,6907.852,95.23,530.725,528.709,0.0
54794.0,STARLINK-5392,PAYLOAD,2023-11-04 04:29:41,15.12106767,0.0001548,53.218,280.2594,94.4808,265.6363,-9.7757e-05,-2e-05,0.0,0 STARLINK-5392,1 54794U 22175AN  23308.18728265 -.00002000  00000-0 -97757-4 0  9994,2 54794  53.2180 280.2594 0001548  94.4808 265.6363 15.12106767 48583,6907.913,95.231,530.848,528.709,0.0
54794.0,STARLINK-5392,PAYLOAD,2023-11-04 06:04:52,15.12104365,0.000159,53.218,279.9617,88.0804,272.0372,-8.1435e-05,-1.715e-05,0.0,0 STARLINK-5392,1 54794U 22175AN  23308.25338056 -.00001715  00000-0 -81435-4 0  9995,2 54794  53.2180 279.9617 0001590  88.0804 272.0372 15.12104365 50752,6907.92,95.232,530.884,528.687,0.0
54794.0,STARLINK-5392,PAYLOAD,2023-11-04 15:35:55,15.12115438,0.0001519,53.2184,278.1739,99.4204,260.6961,6.6144e-05,8.55e-06,0.0,0 STARLINK-5392,1 54794U 22175AN  23308.64994697  .00000855  00000-0  66144-4 0  9999,2 54794  53.2184 278.1739 0001519  99.4204 260.6961 15.12115438 48659,6907.887,95.231,530.801,528.702,0.0
54794.0,STARLINK-5392,PAYLOAD,2023-11-05 04:17:20,15.12132636,0.0001587,53.2185,275.7899,89.0638,271.0538,9.056e-05,1.281e-05,0.0,0 STARLINK-5392,1 54794U 22175AN  23309.17870478  .00001281  00000-0  90560-4 0  9991,2 54794  53.2185 275.7899 0001587  89.0638 271.0538 15.12132636 48735,6907.834,95.23,530.796,528.603,0.0
54794.0,STARLINK-5392,PAYLOAD,2023-11-05 07:27:41,15.12137557,0.0001419,53.2172,275.1934,91.3861,268.7295,6.5356e-05,8.42e-06,0.0,0 STARLINK-5392,1 54794U 22175AN  23309.31089349  .00000842  00000-0  65356-4 0  9993,2 54794  53.2172 275.1934 0001419  91.3861 268.7295 15.12137557 50916,6907.819,95.229,530.665,528.704,0.0
54794.0,STARLINK-5392,PAYLOAD,2023-11-05 15:23:34,15.12135001,0.0001452,53.218,273.7022,89.952,270.164,6.3342e-05,8.07e-06,0.0,0 STARLINK-5392,1 54794U 22175AN  23309.64137340  .00000807  00000-0  63342-4 0  9998,2 54794  53.2180 273.7022 0001452  89.9520 270.1640 15.12135001 50967,6907.827,95.23,530.695,528.689,0.0
54794.0,STARLINK-5392,PAYLOAD,2023-11-06 04:04:57,15.121506,0.0001483,53.2184,271.3127,103.2163,256.8996,0.00034448,5.715e-05,0.0,0 STARLINK-5392,1 54794U 22175AN  23310.17011386  .00005715  00000-0  34448-3 0  9996,2 54794  53.2184 271.3127 0001483 103.2163 256.8996 15.12150600 48883,6907.78,95.229,530.669,528.62,0.0
54794.0,STARLINK-5392,PAYLOAD,2023-11-06 07:15:18,15.12153859,0.0001604,53.2182,270.7169,101.3366,258.7808,0.00035806,5.952e-05,0.0,0 STARLINK-5392,1 54794U 22175AN  23310.30230163  .00005952  00000-0  35806-3 0  9999,2 54794  53.2182 270.7169 0001604 101.3366 258.7808 15.12153859 51065,6907.77,95.228,530.743,528.527,0.0
54794.0,STARLINK-5392,PAYLOAD,2023-11-07 03:52:39,15.12128908,0.00014,53.2182,266.8418,97.6277,262.4875,-0.00012351,-2.449e-05,0.0,0 STARLINK-5392,1 54794U 22175AN  23311.16156821 -.00002449  00000-0 -12351-3 0  9992,2 54794  53.2182 266.8418 0001400  97.6277 262.4875 15.12128908 49037,6907.846,95.23,530.678,528.744,0.0
54794.0,STARLINK-5392,PAYLOAD,2023-11-07 07:03:01,15.1212606,0.0001273,53.2177,266.246,94.7807,265.3332,-0.00014262,-2.782e-05,0.0,0 STARLINK-5392,1 54794U 22175AN  23311.29376173 -.00002782  00000-0 -14262-3 0  9993,2 54794  53.2177 266.2460 0001273  94.7807 265.3332 15.12126060 51217,6907.854,95.23,530.599,528.84,0.0
54794.0,STARLINK-5392,PAYLOAD,2023-11-08 03:40:21,15.12122154,0.0001378,53.2179,262.3679,97.5335,262.5815,-0.00034283,-6.266e-05,0.0,0 STARLINK-5392,1 54794U 22175AN  23312.15302136 -.00006266  00000-0 -34283-3 0  9993,2 54794  53.2179 262.3679 0001378  97.5335 262.5815 15.12122154 49189,6907.866,95.23,530.683,528.779,0.0
